sat30637
1 30637U 99025ANU 20046.67101705  .00001189  00000-0  21486-3 0  9996
2 30637  98.9606  39.6314 0087755   5.9012  54.5990 14.66183087689621
